STARLINK-35604          
1 66802U 25278M   25353.00002315 -.01886049  00000+0 -17986-1 0  9994
2 66802  42.9991 213.9193 0001583 273.8708 109.3980 15.68844882  3960
STARLINK-35565          
1 66803U 25278N   25353.00002315 -.01899026  00000+0 -18115-1 0  9999
2 66803  42.9993 213.9095 0001595 271.1595 115.9322 15.68858161  4051
STARLINK-36038          
1 66804U 25278P   25353.00002315 -.01897440  00000+0 -18099-1 0  9999
2 66804  42.9995 213.9052 0001587 272.5662 116.4416 15.68857998  3964
STARLINK-36049          
1 66805U 25278Q   25353.00002315 -.01901975  00000+0 -18145-1 0  9991
2 66805  42.9993 213.8950 0001610 272.6199 120.2205 15.68860989  3965
STARLINK-36069          
1 66806U 25278R   25353.00002315 -.01902470  00000+0 -18150-1 0  9999
2 66806  42.9993 213.9001 0001591 275.2508 115.6736 15.68860966  3754
STARLINK-36000          
1 66807U 25278S   25353.00002315 -.01900429  00000+0 -18129-1 0  9998
2 66807  42.9992 213.8857 0001569 271.9085 124.7660 15.68860325  4027
STARLINK-36071          
1 66808U 25278T   25353.00002315 -.01890464  00000+0 -18029-1 0  9995
2 66808  42.9994 213.8808 0001692 272.9595 125.6402 15.68849761  3967
STARLINK-35979          
1 66809U 25278U   25353.00002315 -.01875866  00000+0 -17896-1 0  9996
2 66809  42.9992 213.8654 0001818 277.8804 126.5141 15.68816294  3967
STARLINK-36046          
1 66810U 25278V   25353.00002315 -.01895840  00000+0 -18083-1 0  9991
2 66810  42.9994 213.8762 0001643 276.4524 124.0600 15.68855697  3739
STARLINK-36045          
1 66811U 25278W   25353.00002315 -.01892318  00000+0 -18049-1 0  9991
2 66811  42.9992 213.8710 0001477 273.5084 128.9247 15.68852015  3961
STARLINK-36054          
1 66812U 25278X   25353.00002315 -.01899960  00000+0 -18125-1 0  9997
2 66812  42.9995 213.8614 0001560 275.2317 131.0292 15.68859701  3963
STARLINK-36042          
1 66813U 25278Y   25353.00002315 -.01903484  00000+0 -18160-1 0  9994
2 66813  42.9987 213.8563 0001575 276.3700 131.8051 15.68862889  3964
