CCSDS_OMM_VERS = 2.0
CREATION_DATE  = 
ORIGINATOR     = 

OBJECT_NAME    = STARLINK-35604
OBJECT_ID      = 2025-278M
CENTER_NAME    = EARTH
REF_FRAME      = TEME
TIME_SYSTEM    = UTC
MEAN_ELEMENT_THEORY = SGP/SGP4

EPOCH          = 2025-12-19T00:00:02.000160
MEAN_MOTION    = 15.68844882
ECCENTRICITY   = .00015831
INCLINATION    = 42.9991
RA_OF_ASC_NODE = 213.9193
ARG_OF_PERICENTER = 273.8708
MEAN_ANOMALY   = 109.3980

EPHEMERIS_TYPE = 0
CLASSIFICATION_TYPE = U
NORAD_CAT_ID   = 66802
ELEMENT_SET_NO = 999
REV_AT_EPOCH   = 396
BSTAR          = -.17986036E-1
MEAN_MOTION_DOT = -.1886049E-1
MEAN_MOTION_DDOT = 0

CCSDS_OMM_VERS = 2.0
CREATION_DATE  = 
ORIGINATOR     = 

OBJECT_NAME    = STARLINK-35565
OBJECT_ID      = 2025-278N
CENTER_NAME    = EARTH
REF_FRAME      = TEME
TIME_SYSTEM    = UTC
MEAN_ELEMENT_THEORY = SGP/SGP4

EPOCH          = 2025-12-19T00:00:02.000160
MEAN_MOTION    = 15.68858161
ECCENTRICITY   = .00015958
INCLINATION    = 42.9993
RA_OF_ASC_NODE = 213.9095
ARG_OF_PERICENTER = 271.1595
MEAN_ANOMALY   = 115.9322

EPHEMERIS_TYPE = 0
CLASSIFICATION_TYPE = U
NORAD_CAT_ID   = 66803
ELEMENT_SET_NO = 999
REV_AT_EPOCH   = 405
BSTAR          = -.18115426E-1
MEAN_MOTION_DOT = -.1899026E-1
MEAN_MOTION_DDOT = 0

CCSDS_OMM_VERS = 2.0
CREATION_DATE  = 
ORIGINATOR     = 

OBJECT_NAME    = STARLINK-36038
OBJECT_ID      = 2025-278P
CENTER_NAME    = EARTH
REF_FRAME      = TEME
TIME_SYSTEM    = UTC
MEAN_ELEMENT_THEORY = SGP/SGP4

EPOCH          = 2025-12-19T00:00:02.000160
MEAN_MOTION    = 15.68857998
ECCENTRICITY   = .00015874
INCLINATION    = 42.9995
RA_OF_ASC_NODE = 213.9052
ARG_OF_PERICENTER = 272.5662
MEAN_ANOMALY   = 116.4416

EPHEMERIS_TYPE = 0
CLASSIFICATION_TYPE = U
NORAD_CAT_ID   = 66804
ELEMENT_SET_NO = 999
REV_AT_EPOCH   = 396
BSTAR          = -.18098571E-1
MEAN_MOTION_DOT = -.189744E-1
MEAN_MOTION_DDOT = 0

CCSDS_OMM_VERS = 2.0
CREATION_DATE  = 
ORIGINATOR     = 

OBJECT_NAME    = STARLINK-36049
OBJECT_ID      = 2025-278Q
CENTER_NAME    = EARTH
REF_FRAME      = TEME
TIME_SYSTEM    = UTC
MEAN_ELEMENT_THEORY = SGP/SGP4

EPOCH          = 2025-12-19T00:00:02.000160
MEAN_MOTION    = 15.68860989
ECCENTRICITY   = .00016109
INCLINATION    = 42.9993
RA_OF_ASC_NODE = 213.8950
ARG_OF_PERICENTER = 272.6199
MEAN_ANOMALY   = 120.2205

EPHEMERIS_TYPE = 0
CLASSIFICATION_TYPE = U
NORAD_CAT_ID   = 66805
ELEMENT_SET_NO = 999
REV_AT_EPOCH   = 396
BSTAR          = -.18144897E-1
MEAN_MOTION_DOT = -.1901975E-1
MEAN_MOTION_DDOT = 0

CCSDS_OMM_VERS = 2.0
CREATION_DATE  = 
ORIGINATOR     = 

OBJECT_NAME    = STARLINK-36069
OBJECT_ID      = 2025-278R
CENTER_NAME    = EARTH
REF_FRAME      = TEME
TIME_SYSTEM    = UTC
MEAN_ELEMENT_THEORY = SGP/SGP4

EPOCH          = 2025-12-19T00:00:02.000160
MEAN_MOTION    = 15.68860966
ECCENTRICITY   = .00015919
INCLINATION    = 42.9993
RA_OF_ASC_NODE = 213.9001
ARG_OF_PERICENTER = 275.2508
MEAN_ANOMALY   = 115.6736

EPHEMERIS_TYPE = 0
CLASSIFICATION_TYPE = U
NORAD_CAT_ID   = 66806
ELEMENT_SET_NO = 999
REV_AT_EPOCH   = 375
BSTAR          = -.18150396E-1
MEAN_MOTION_DOT = -.190247E-1
MEAN_MOTION_DDOT = 0

CCSDS_OMM_VERS = 2.0
CREATION_DATE  = 
ORIGINATOR     = 

OBJECT_NAME    = STARLINK-36000
OBJECT_ID      = 2025-278S
CENTER_NAME    = EARTH
REF_FRAME      = TEME
TIME_SYSTEM    = UTC
MEAN_ELEMENT_THEORY = SGP/SGP4

EPOCH          = 2025-12-19T00:00:02.000160
MEAN_MOTION    = 15.68860325
ECCENTRICITY   = .00015696
INCLINATION    = 42.9992
RA_OF_ASC_NODE = 213.8857
ARG_OF_PERICENTER = 271.9085
MEAN_ANOMALY   = 124.7660

EPHEMERIS_TYPE = 0
CLASSIFICATION_TYPE = U
NORAD_CAT_ID   = 66807
ELEMENT_SET_NO = 999
REV_AT_EPOCH   = 402
BSTAR          = -.18129095E-1
MEAN_MOTION_DOT = -.1900429E-1
MEAN_MOTION_DDOT = 0

CCSDS_OMM_VERS = 2.0
CREATION_DATE  = 
ORIGINATOR     = 

OBJECT_NAME    = STARLINK-36071
OBJECT_ID      = 2025-278T
CENTER_NAME    = EARTH
REF_FRAME      = TEME
TIME_SYSTEM    = UTC
MEAN_ELEMENT_THEORY = SGP/SGP4

EPOCH          = 2025-12-19T00:00:02.000160
MEAN_MOTION    = 15.68849761
ECCENTRICITY   = .00016925
INCLINATION    = 42.9994
RA_OF_ASC_NODE = 213.8808
ARG_OF_PERICENTER = 272.9595
MEAN_ANOMALY   = 125.6402

EPHEMERIS_TYPE = 0
CLASSIFICATION_TYPE = U
NORAD_CAT_ID   = 66808
ELEMENT_SET_NO = 999
REV_AT_EPOCH   = 396
BSTAR          = -.18028948E-1
MEAN_MOTION_DOT = -.1890464E-1
MEAN_MOTION_DDOT = 0

CCSDS_OMM_VERS = 2.0
CREATION_DATE  = 
ORIGINATOR     = 

OBJECT_NAME    = STARLINK-35979
OBJECT_ID      = 2025-278U
CENTER_NAME    = EARTH
REF_FRAME      = TEME
TIME_SYSTEM    = UTC
MEAN_ELEMENT_THEORY = SGP/SGP4

EPOCH          = 2025-12-19T00:00:02.000160
MEAN_MOTION    = 15.68816294
ECCENTRICITY   = .00018181
INCLINATION    = 42.9992
RA_OF_ASC_NODE = 213.8654
ARG_OF_PERICENTER = 277.8804
MEAN_ANOMALY   = 126.5141

EPHEMERIS_TYPE = 0
CLASSIFICATION_TYPE = U
NORAD_CAT_ID   = 66809
ELEMENT_SET_NO = 999
REV_AT_EPOCH   = 396
BSTAR          = -.17896204E-1
MEAN_MOTION_DOT = -.1875866E-1
MEAN_MOTION_DDOT = 0

CCSDS_OMM_VERS = 2.0
CREATION_DATE  = 
ORIGINATOR     = 

OBJECT_NAME    = STARLINK-36046
OBJECT_ID      = 2025-278V
CENTER_NAME    = EARTH
REF_FRAME      = TEME
TIME_SYSTEM    = UTC
MEAN_ELEMENT_THEORY = SGP/SGP4

EPOCH          = 2025-12-19T00:00:02.000160
MEAN_MOTION    = 15.68855697
ECCENTRICITY   = .00016434
INCLINATION    = 42.9994
RA_OF_ASC_NODE = 213.8762
ARG_OF_PERICENTER = 276.4524
MEAN_ANOMALY   = 124.0600

EPHEMERIS_TYPE = 0
CLASSIFICATION_TYPE = U
NORAD_CAT_ID   = 66810
ELEMENT_SET_NO = 999
REV_AT_EPOCH   = 373
BSTAR          = -.18082651E-1
MEAN_MOTION_DOT = -.189584E-1
MEAN_MOTION_DDOT = 0

CCSDS_OMM_VERS = 2.0
CREATION_DATE  = 
ORIGINATOR     = 

OBJECT_NAME    = STARLINK-36045
OBJECT_ID      = 2025-278W
CENTER_NAME    = EARTH
REF_FRAME      = TEME
TIME_SYSTEM    = UTC
MEAN_ELEMENT_THEORY = SGP/SGP4

EPOCH          = 2025-12-19T00:00:02.000160
MEAN_MOTION    = 15.68852015
ECCENTRICITY   = .00014779
INCLINATION    = 42.9992
RA_OF_ASC_NODE = 213.8710
ARG_OF_PERICENTER = 273.5084
MEAN_ANOMALY   = 128.9247

EPHEMERIS_TYPE = 0
CLASSIFICATION_TYPE = U
NORAD_CAT_ID   = 66811
ELEMENT_SET_NO = 999
REV_AT_EPOCH   = 396
BSTAR          = -.18048869E-1
MEAN_MOTION_DOT = -.1892318E-1
MEAN_MOTION_DDOT = 0

CCSDS_OMM_VERS = 2.0
CREATION_DATE  = 
ORIGINATOR     = 

OBJECT_NAME    = STARLINK-36054
OBJECT_ID      = 2025-278X
CENTER_NAME    = EARTH
REF_FRAME      = TEME
TIME_SYSTEM    = UTC
MEAN_ELEMENT_THEORY = SGP/SGP4

EPOCH          = 2025-12-19T00:00:02.000160
MEAN_MOTION    = 15.68859701
ECCENTRICITY   = .000156
INCLINATION    = 42.9995
RA_OF_ASC_NODE = 213.8614
ARG_OF_PERICENTER = 275.2317
MEAN_ANOMALY   = 131.0292

EPHEMERIS_TYPE = 0
CLASSIFICATION_TYPE = U
NORAD_CAT_ID   = 66812
ELEMENT_SET_NO = 999
REV_AT_EPOCH   = 396
BSTAR          = -.18124607E-1
MEAN_MOTION_DOT = -.189996E-1
MEAN_MOTION_DDOT = 0

CCSDS_OMM_VERS = 2.0
CREATION_DATE  = 
ORIGINATOR     = 

OBJECT_NAME    = STARLINK-36042
OBJECT_ID      = 2025-278Y
CENTER_NAME    = EARTH
REF_FRAME      = TEME
TIME_SYSTEM    = UTC
MEAN_ELEMENT_THEORY = SGP/SGP4

EPOCH          = 2025-12-19T00:00:02.000160
MEAN_MOTION    = 15.68862889
ECCENTRICITY   = .00015751
INCLINATION    = 42.9987
RA_OF_ASC_NODE = 213.8563
ARG_OF_PERICENTER = 276.3700
MEAN_ANOMALY   = 131.8051

EPHEMERIS_TYPE = 0
CLASSIFICATION_TYPE = U
NORAD_CAT_ID   = 66813
ELEMENT_SET_NO = 999
REV_AT_EPOCH   = 396
BSTAR          = -.1815997E-1
MEAN_MOTION_DOT = -.1903484E-1
MEAN_MOTION_DDOT = 0

